DMSP 5D-3 F16 (USA 172) 
1 28054U 03048A   26041.55550079  .00000145  00000+0  99589-4 0  9996
2 28054  99.0016  64.4757 0007884 140.5280 332.9841 14.14451210151589
METEOSAT-9 (MSG-2)      
1 28912U 05049B   26041.16225260  .00000129  00000+0  00000+0 0  9997
2 28912   9.0734  55.4041 0000526 178.1493  10.8077  1.00273217  5722
DMSP 5D-3 F17 (USA 191) 
1 29522U 06050A   26041.52419416  .00000171  00000+0  11062-3 0  9997
2 29522  98.7408  50.6740 0011018  61.2101 299.0178 14.14951324994509
FENGYUN 3A              
1 32958U 08026A   26041.45753203  .00000122  00000+0  78197-4 0  9995
2 32958  98.6764 344.7487 0009524 128.2936 231.9098 14.19537717917427
GOES 14                 
1 35491U 09033A   26041.53933569  .00000138  00000+0  00000+0 0  9993
2 35491   1.3615  84.7587 0001786 289.1627 174.6796  1.00114814  5326
DMSP 5D-3 F18 (USA 210) 
1 35951U 09057A   26041.55606423  .00000295  00000+0  17578-3 0  9994
2 35951  98.8917  22.6850 0010031 249.7996 110.2098 14.14817269841682
EWS-G2 (GOES 15)        
1 36411U 10008A   26041.63533164  .00000043  00000+0  00000+0 0  9993
2 36411   0.9567  85.6249 0004469 202.9202 142.5146  1.00276145 58369
COMS 1                  
1 36744U 10032A   26041.62608798 -.00000338  00000+0  00000+0 0  9992
2 36744   4.4818  77.2121 0000948 266.0786 150.9607  1.00271662 49823
FENGYUN 3B              
1 37214U 10059A   26041.65575869 -.00000078  00000+0 -16723-4 0  9995
2 37214  98.9822  87.0293 0021941 182.8170 291.2901 14.14809384789538
SUOMI NPP               
1 37849U 11061A   26041.53602923  .00000103  00000+0  69967-4 0  9997
2 37849  98.7837 343.3598 0001490  15.3067 344.8154 14.19535537740470
METEOSAT-10 (MSG-3)     
1 38552U 12035B   26041.33433110  .00000000  00000+0  00000+0 0  9993
2 38552   4.3705  61.5604 0002317 291.8441 267.3660  1.00273865 49586
METOP-B                 
1 38771U 12049A   26041.55567415  .00000117  00000+0  73447-4 0  9990
2 38771  98.6702  95.4744 0002246  18.4231 341.7027 14.21435325695279
INSAT-3D                
1 39216U 13038B   26041.57396573 -.00000332  00000+0  00000+0 0  9991
2 39216   1.5984  84.2454 0001554 226.4557 166.0667  1.00272059 45819
FENGYUN 3C              
1 39260U 13052A   26041.60729315  .00000135  00000+0  89982-4 0  9995
2 39260  98.4847  21.3887 0015308  31.6444 328.5648 14.15719478640654
METEOR-M 2              
1 40069U 14037A   26041.58246708 -.00000027  00000+0  67308-5 0  9995
2 40069  98.4985  21.8988 0006763  50.6351 309.5425 14.21415898601336
HIMAWARI-8              
1 40267U 14060A   26041.63090861 -.00000267  00000+0  00000+0 0  9990
2 40267   0.0309 239.1618 0000521  61.3420 207.9710  1.00273410 41499
FENGYUN 2G              
1 40367U 14090A   26041.56789904 -.00000293  00000+0  00000+0 0  9998
2 40367   5.3181  74.3679 0001269 200.9238 169.0099  1.00261900 40735
METEOSAT-11 (MSG-4)     
1 40732U 15034A   26041.26491072  .00000070  00000+0  00000+0 0  9998
2 40732   2.8820  71.8113 0001198 243.8801 289.6062  1.00269253  5943
ELEKTRO-L 2             
1 41105U 15074A   26041.40279814 -.00000112  00000+0  00000+0 0  9999
2 41105   6.3748  72.0972 0003379 233.2285 325.6665  1.00272569 37235
INSAT-3DR               
1 41752U 16054A   26041.62843706 -.00000068  00000+0  00000+0 0  9997
2 41752   0.0649  93.0727 0013486 186.0426 161.7942  1.00271830 34545
HIMAWARI-9              
1 41836U 16064A   26041.36850183 -.00000267  00000+0  00000+0 0  9990
2 41836   0.0400 250.7850 0001582 117.6434  45.3940  1.00266722 33936
GOES 16                 
1 41866U 16071A   26041.52751215 -.00000082  00000+0  00000+0 0  9990
2 41866   0.1497  93.6444 0002610 204.2326 287.9090  1.00272314 33838
FENGYUN 4A              
1 41882U 16077A   26040.21777900 -.00000350  00000+0  00000+0 0  9996
2 41882   1.9969  81.7582 0006156 131.4112 128.2662  1.00275030 33642
CYGFM05                 
1 41884U 16078A   26041.35274354  .00022856  00000+0  38399-3 0  9990
2 41884  34.9599  16.8879 0006465   9.6040 350.4806 15.50777658509017
CYGFM04                 
1 41885U 16078B   26041.26417318  .00026503  00000+0  40128-3 0  9996
2 41885  34.9348 350.4425 0004911  40.0827 320.0258 15.53647347509197
CYGFM02                 
1 41886U 16078C   26041.26514166  .00029682  00000+0  41841-3 0  9990
2 41886  34.9435 347.8683 0006066  43.2640 316.8559 15.55569791509333
CYGFM01                 
1 41887U 16078D   26041.32298400  .00023623  00000+0  39121-3 0  9995
2 41887  34.9429  19.0181 0006536 359.2536   0.8176 15.51172716508959
CYGFM08                 
1 41888U 16078E   26041.26443748  .00026169  00000+0  41170-3 0  9991
2 41888  34.9460   1.6455 0007172  29.6853 330.4276 15.52579849509181
CYGFM07                 
1 41890U 16078G   26041.17865129  .00026431  00000+0  40628-3 0  9994
2 41890  34.9475 350.8369 0005170  48.4994 311.6172 15.53233068509192
CYGFM03                 
1 41891U 16078H   26041.27674163  .00025445  00000+0  39290-3 0  9999
2 41891  34.9430 352.1536 0005098  28.1426 331.9572 15.53113080509188
FENGYUN 3D              
1 43010U 17072A   26041.57328134 -.00000194  00000+0 -69878-4 0  9998
2 43010  98.9984  13.8080 0002482  62.1168 298.0258 14.19705423427022
NOAA 20 (JPSS-1)        
1 43013U 17073A   26041.55055553  .00000084  00000+0  60887-4 0  9999
2 43013  98.7661 342.2128 0000175  17.4636 342.6546 14.19528758426509
GOES 17                 
1 43226U 18022A   26041.53054550 -.00000174  00000+0  00000+0 0  9991
2 43226   0.6109  88.0853 0002345 211.3763 302.5982  1.00274596 29154
FENGYUN 2H              
1 43491U 18050A   26041.56391235 -.00000119  00000+0  00000+0 0  9992
2 43491   2.7041  80.6478 0001841 169.3661 172.5400  1.00275033 28163
METOP-C                 
1 43689U 18087A   26041.58118397  .00000117  00000+0  73436-4 0  9994
2 43689  98.6827 103.4055 0001780 137.8260 222.3055 14.21511331376842
GEO-KOMPSAT-2A          
1 43823U 18100A   26041.57370573 -.00000335  00000+0  00000+0 0  9990
2 43823   0.0092  87.3417 0001210 323.0547  65.0246  1.00271605 26363
METEOR-M2 2             
1 44387U 19038A   26041.58907622  .00000092  00000+0  59626-4 0  9991
2 44387  98.9052  27.0755 0002065  48.6979 311.4377 14.24322139343279
ARKTIKA-M 1             
1 47719U 21016A   26035.90384421 -.00000136  00000+0  00000+0 0  9994
2 47719  63.1930  76.4940 7230705 269.3476  15.2984  2.00623094 36131
FENGYUN 3E              
1 49008U 21062A   26041.57205056  .00000077  00000+0  56905-4 0  9997
2 49008  98.7507  46.3928 0002683  88.4106 271.7378 14.19889691238618
GOES 18                 
1 51850U 22021A   26041.50530728  .00000105  00000+0  00000+0 0  9993
2 51850   0.0128 100.6779 0000720 291.8131 152.9783  1.00270621  5320
NOAA 21 (JPSS-2)        
1 54234U 22150A   26041.58556008  .00000103  00000+0  69885-4 0  9991
2 54234  98.7523 342.1672 0001602 158.9251 201.1991 14.19544778168580
METEOSAT-12 (MTG-I1)    
1 54743U 22170C   26041.39280966  .00000001  00000+0  00000+0 0  9990
2 54743   0.7159  25.7405 0001844 277.4399 338.3242  1.00271568 11702
TIANMU-1 03             
1 55973U 23039A   26041.58866742  .00017570  00000+0  39814-3 0  9992
2 55973  97.5145 211.0184 0003074 184.1315 175.9907 15.43160036161281
TIANMU-1 04             
1 55974U 23039B   26041.55428513  .00017637  00000+0  39450-3 0  9990
2 55974  97.5078 210.1516 0003765 181.9284 178.1950 15.43542976161283
TIANMU-1 05             
1 55975U 23039C   26041.56423167  .00016765  00000+0  38075-3 0  9995
2 55975  97.5125 210.6547 0002613 207.1673 152.9438 15.43103646161266
TIANMU-1 06             
1 55976U 23039D   26041.55465693  .00017495  00000+0  39092-3 0  9996
2 55976  97.5136 211.1608 0002973 202.3031 157.8087 15.43579186161289
FENGYUN 3G              
1 56232U 23055A   26041.17073881  .00029032  00000+0  46474-3 0  9994
2 56232  49.9934 280.9957 0010133 253.2779 106.7076 15.52780423160260
METEOR-M2 3             
1 57166U 23091A   26041.62588916 -.00000004  00000+0  17107-4 0  9992
2 57166  98.6280  99.0920 0004234 163.7379 196.3937 14.24034721136509
TIANMU-1 07             
1 57399U 23101A   26041.55883412  .00007552  00000+0  26962-3 0  9995
2 57399  97.2787  95.1025 0003127 200.8070 159.3044 15.29134275142290
TIANMU-1 08             
1 57400U 23101B   26041.59412356  .00007055  00000+0  25285-3 0  9992
2 57400  97.2775  94.9193 0004784 210.7147 149.3814 15.29024001142297
TIANMU-1 09             
1 57401U 23101C   26041.57703031  .00007489  00000+0  26705-3 0  9993
2 57401  97.2733  94.3907 0004097 211.7931 148.3063 15.29174380142299
TIANMU-1 10             
1 57402U 23101D   26041.54606222  .00007606  00000+0  27118-3 0  9995
2 57402  97.2812  95.2736 0005773 217.0431 143.0411 15.29167816142288
FENGYUN 3F              
1 57490U 23111A   26041.55841314  .00000073  00000+0  54682-4 0  9995
2 57490  98.6986 113.8602 0001495  96.5167 263.6179 14.19912851130893
ARKTIKA-M 2             
1 58584U 23198A   26041.14734044  .00000160  00000+0  00000+0 0  9998
2 58584  63.2229 168.4151 6872823 267.8647  18.8443  2.00612845 15774
TIANMU-1 11             
1 58645U 23205A   26041.58761991  .00006466  00000+0  25768-3 0  9991
2 58645  97.3576  65.1838 0011014  92.0931 268.1569 15.25497442118212
TIANMU-1 12             
1 58646U 23205B   26041.55302292  .00006671  00000+0  26659-3 0  9992
2 58646  97.3565  64.9362 0009234  78.7850 281.4426 15.25409330118198
TIANMU-1 13             
1 58647U 23205C   26041.58479398  .00006559  00000+0  26179-3 0  9990
2 58647  97.3593  65.1943 0009269  63.5899 296.6289 15.25457746118190
TIANMU-1 14             
1 58648U 23205D   26041.56896197  .00006132  00000+0  24505-3 0  9997
2 58648  97.3527  64.4724 0010144  66.6190 293.6114 15.25435135118191
TIANMU-1 19             
1 58660U 23208A   26041.57972435  .00010009  00000+0  35525-3 0  9997
2 58660  97.4371 157.5538 0005931  54.5068 305.6725 15.29235905117961
TIANMU-1 20             
1 58661U 23208B   26041.45434150  .00010103  00000+0  34555-3 0  9999
2 58661  97.4309 157.9349 0008259  60.6981 299.5084 15.30425083118022
TIANMU-1 21             
1 58662U 23208C   26041.48767405  .00011489  00000+0  36996-3 0  9994
2 58662  97.4361 160.1422 0007958  55.4415 304.7577 15.32340683118141
TIANMU-1 22             
1 58663U 23208D   26041.59095949  .00009813  00000+0  35205-3 0  9994
2 58663  97.4366 157.5931 0004917  76.7539 283.4249 15.28893946117976
TIANMU-1 15             
1 58700U 24004A   26041.63218061  .00006709  00000+0  26816-3 0  9997
2 58700  97.4656 227.9168 0008382  76.9583 283.2590 15.25416569116475
TIANMU-1 16             
1 58701U 24004B   26041.61622333  .00006827  00000+0  27267-3 0  9999
2 58701  97.4596 227.2439 0006799  79.7396 280.4609 15.25446172116479
TIANMU-1 17             
1 58702U 24004C   26041.59920999  .00007149  00000+0  28510-3 0  9996
2 58702  97.4629 227.6674 0005993  81.1029 279.0888 15.25483929116460
TIANMU-1 18             
1 58703U 24004D   26041.58355247  .00006998  00000+0  27952-3 0  9994
2 58703  97.4647 227.8588 0005402  80.5118 279.6730 15.25443701116460
INSAT-3DS               
1 58990U 24033A   26041.56451902 -.00000147  00000+0  00000+0 0  9999
2 58990   0.0091 118.4480 0001718 226.5652  80.8795  1.00273795 45790
METEOR-M2 4             
1 59051U 24039A   26041.56716932  .00000035  00000+0  35457-4 0  9995
2 59051  98.6856   2.5655 0007141 167.6030 192.5325 14.22412773101263
GOES 19                 
1 60133U 24119A   26041.53340552 -.00000240  00000+0  00000+0 0  9995
2 60133   0.0217 311.0576 0001125  60.2964 246.0709  1.00272408  5696
FENGYUN 3H              
1 65815U 25219A   26041.55488951  .00000082  00000+0  59025-4 0  9996
2 65815  98.6651 344.8681 0001602  83.0251 277.1108 14.19925168 19411
